[{"OBJECT_NAME":"STARLINK-5087","OBJECT_ID":"2022-177AG","EPOCH":"2026-03-09T22:00:01.999584","MEAN_MOTION":15.1141604,"ECCENTRICITY":0.00013703,"INCLINATION":43.0008,"RA_OF_ASC_NODE":119.1582,"ARG_OF_PERICENTER":266.6734,"MEAN_ANOMALY":273.7551,"EPHEMERIS_TYPE":0,"CLASSIFICATION_TYPE":"U","NORAD_CAT_ID":54850,"ELEMENT_SET_NO":999,"REV_AT_EPOCH":573,"BSTAR":0.046432606,"MEAN_MOTION_DOT":0.00859826,"MEAN_MOTION_DDOT":0},{"OBJECT_NAME":"OBJECT Z","OBJECT_ID":"2025-313Z","EPOCH":"2026-03-09T23:02:13.726176","MEAN_MOTION":15.20703812,"ECCENTRICITY":0.00148585,"INCLINATION":97.4007,"RA_OF_ASC_NODE":145.164,"ARG_OF_PERICENTER":355.5095,"MEAN_ANOMALY":4.6005,"EPHEMERIS_TYPE":0,"CLASSIFICATION_TYPE":"U","NORAD_CAT_ID":67271,"ELEMENT_SET_NO":999,"REV_AT_EPOCH":1085,"BSTAR":0.00029410612,"MEAN_MOTION_DOT":6.416e-5,"MEAN_MOTION_DDOT":0}]
